start=new Date('2023-03-14T00:00:00.000Z').valueOf();
sats=[{"MEAN_MOTION_DOT":"0.00007655","ELEMENT_SET_NO":"999","EPHEMERIS_TYPE":"0","TLE_LINE2":"2 48309  53.0530 312.8906 0001812  69.4737 290.6447 15.06394675103618","EPOCH":"2023-03-13T21:25:06.093696","CLASSIFICATION_TYPE":"U","MEAN_MOTION_DDOT":"0.0000000000000","PERIAPSIS":"545.975","TLE_LINE1":"1 48309U 21036AK  23072.89243164  .00007655  00000-0  53234-3 0  9990","MEAN_MOTION":"15.06394675","NORAD_CAT_ID":"48309","BSTAR":"0.00053234000000","GP_ID":"228032798","LAUNCH_DATE":"2021-04-29","PERIOD":"95.592","COUNTRY_CODE":"US","RCS_SIZE":"LARGE","OBJECT_NAME":"STARLINK-2517","OBJECT_TYPE":"PAYLOAD","TIME_SYSTEM":"UTC","DECAY_DATE":null,"OBJECT_ID":"2021-036AK","APOAPSIS":"548.485","REV_AT_EPOCH":"10361","ECCENTRICITY":"0.00018120","CENTER_NAME":"EARTH","RA_OF_ASC_NODE":"312.8906","ARG_OF_PERICENTER":"69.4737","MEAN_ELEMENT_THEORY":"SGP4","SITE":"AFETR","SEMIMAJOR_AXIS":"6925.365","REF_FRAME":"TEME","MEAN_ANOMALY":"290.6447","FILE":"3859631","INCLINATION":"53.0530"},{"MEAN_MOTION_DOT":"0.00002256","ELEMENT_SET_NO":"999","EPHEMERIS_TYPE":"0","TLE_LINE2":"2 48310  53.0545 312.8956 0001485 113.7913 246.3232 15.06408905103618","MEAN_MOTION_DDOT":"0.0000000000000","EPOCH":"2023-03-13T21:19:45.787296","CLASSIFICATION_TYPE":"U","PERIAPSIS":"546.158","TLE_LINE1":"1 48310U 21036AL  23072.88872439  .00002256  00000-0  17027-3 0  9996","MEAN_MOTION":"15.06408905","GP_ID":"228032549","BSTAR":"0.00017027000000","NORAD_CAT_ID":"48310","LAUNCH_DATE":"2021-04-29","COUNTRY_CODE":"US","RCS_SIZE":"LARGE","OBJECT_NAME":"STARLINK-2536","PERIOD":"95.592","OBJECT_TYPE":"PAYLOAD","OBJECT_ID":"2021-036AL","DECAY_DATE":null,"TIME_SYSTEM":"UTC","REV_AT_EPOCH":"10361","ECCENTRICITY":"0.00014850","APOAPSIS":"548.215","SITE":"AFETR","SEMIMAJOR_AXIS":"6925.321","REF_FRAME":"TEME","MEAN_ANOMALY":"246.3232","CENTER_NAME":"EARTH","ARG_OF_PERICENTER":"113.7913","RA_OF_ASC_NODE":"312.8956","MEAN_ELEMENT_THEORY":"SGP4","FILE":"3859631","INCLINATION":"53.0545"},{"ELEMENT_SET_NO":"999","MEAN_MOTION_DOT":"0.00022207","EPHEMERIS_TYPE":"0","TLE_LINE2":"2 48311  53.0543 315.9006 0000998  74.4704 285.6396 15.06427563103513","MEAN_MOTION_DDOT":"0.0000000000000","CLASSIFICATION_TYPE":"U","EPOCH":"2023-03-13T05:19:03.979776","PERIAPSIS":"546.438","MEAN_MOTION":"15.06427563","TLE_LINE1":"1 48311U 21036AM  23072.22157384  .00022207  00000-0  15039-2 0  9998","BSTAR":"0.00150390000000","GP_ID":"228001419","NORAD_CAT_ID":"48311","LAUNCH_DATE":"2021-04-29","OBJECT_NAME":"STARLINK-2534","RCS_SIZE":"LARGE","COUNTRY_CODE":"US","PERIOD":"95.590","OBJECT_TYPE":"PAYLOAD","DECAY_DATE":null,"OBJECT_ID":"2021-036AM","TIME_SYSTEM":"UTC","ECCENTRICITY":"0.00009980","REV_AT_EPOCH":"10351","APOAPSIS":"547.820","SEMIMAJOR_AXIS":"6925.264","REF_FRAME":"TEME","MEAN_ANOMALY":"285.6396","SITE":"AFETR","ARG_OF_PERICENTER":"74.4704","RA_OF_ASC_NODE":"315.9006","MEAN_ELEMENT_THEORY":"SGP4","CENTER_NAME":"EARTH","INCLINATION":"53.0543","FILE":"3859425"},{"EPHEMERIS_TYPE":"0","MEAN_MOTION_DOT":"0.00032138","ELEMENT_SET_NO":"999","CLASSIFICATION_TYPE":"U","EPOCH":"2023-03-12T22:51:37.524960","MEAN_MOTION_DDOT":"0.0000000000000","TLE_LINE2":"2 48312  53.0542 317.1083 0001148  94.7893 265.3227 15.06445106103470","TLE_LINE1":"1 48312U 21036AN  23071.95251765  .00032138  00000-0  21640-2 0  9995","MEAN_MOTION":"15.06445106","PERIAPSIS":"546.280","NORAD_CAT_ID":"48312","GP_ID":"228002162","BSTAR":"0.00216400000000","LAUNCH_DATE":"2021-04-29","OBJECT_TYPE":"PAYLOAD","PERIOD":"95.589","RCS_SIZE":"LARGE","COUNTRY_CODE":"US","OBJECT_NAME":"STARLINK-2061","APOAPSIS":"547.870","REV_AT_EPOCH":"10347","ECCENTRICITY":"0.00011480","TIME_SYSTEM":"UTC","OBJECT_ID":"2021-036AN","DECAY_DATE":null,"FILE":"3859425","INCLINATION":"53.0542","CENTER_NAME":"EARTH","ARG_OF_PERICENTER":"94.7893","MEAN_ELEMENT_THEORY":"SGP4","RA_OF_ASC_NODE":"317.1083","SITE":"AFETR","SEMIMAJOR_AXIS":"6925.210","REF_FRAME":"TEME","MEAN_ANOMALY":"265.3227"},{"TIME_SYSTEM":"UTC","DECAY_DATE":null,"OBJECT_ID":"2021-036AP","APOAPSIS":"548.042","REV_AT_EPOCH":"10346","ECCENTRICITY":"0.00012400","CENTER_NAME":"EARTH","RA_OF_ASC_NODE":"317.1241","ARG_OF_PERICENTER":"83.9303","MEAN_ELEMENT_THEORY":"SGP4","SITE":"AFETR","SEMIMAJOR_AXIS":"6925.319","MEAN_ANOMALY":"276.1827","REF_FRAME":"TEME","FILE":"3859425","INCLINATION":"53.0546","LAUNCH_DATE":"2021-04-29","PERIOD":"95.592","COUNTRY_CODE":"US","RCS_SIZE":"LARGE","OBJECT_NAME":"STARLINK-2541","OBJECT_TYPE":"PAYLOAD","PERIAPSIS":"546.325","TLE_LINE1":"1 48313U 21036AP  23071.94882215  .00006088  00000-0  42715-3 0  9997","MEAN_MOTION":"15.06409805","NORAD_CAT_ID":"48313","GP_ID":"228002417","BSTAR":"0.00042715000000","MEAN_MOTION_DOT":"0.00006088","ELEMENT_SET_NO":"999","EPHEMERIS_TYPE":"0","TLE_LINE2":"2 48313  53.0546 317.1241 0001240  83.9303 276.1827 15.06409805103461","EPOCH":"2023-03-12T22:46:18.233760","CLASSIFICATION_TYPE":"U","MEAN_MOTION_DDOT":"0.0000000000000"},{"PERIAPSIS":"546.362","TLE_LINE1":"1 48314U 21036AQ  23072.07782696  .00003239  00000-0  23616-3 0  9999","MEAN_MOTION":"15.06408814","NORAD_CAT_ID":"48314","BSTAR":"0.00023616000000","GP_ID":"228001669","MEAN_MOTION_DOT":"0.00003239","ELEMENT_SET_NO":"999","EPHEMERIS_TYPE":"0","TLE_LINE2":"2 48314  53.0543 316.5467 0001191  88.6108 271.5017 15.06408814103483","EPOCH":"2023-03-13T01:52:04.249344","CLASSIFICATION_TYPE":"U","MEAN_MOTION_DDOT":"0.0000000000000","TIME_SYSTEM":"UTC","OBJECT_ID":"2021-036AQ","DECAY_DATE":null,"APOAPSIS":"548.011","REV_AT_EPOCH":"10348","ECCENTRICITY":"0.00011910","CENTER_NAME":"EARTH","RA_OF_ASC_NODE":"316.5467","ARG_OF_PERICENTER":"88.6108","MEAN_ELEMENT_THEORY":"SGP4","SITE":"AFETR","SEMIMAJOR_AXIS":"6925.322","MEAN_ANOMALY":"271.5017","REF_FRAME":"TEME","FILE":"3859425","INCLINATION":"53.0543","LAUNCH_DATE":"2021-04-29","PERIOD":"95.592","RCS_SIZE":"LARGE","COUNTRY_CODE":"US","OBJECT_NAME":"STARLINK-2549","OBJECT_TYPE":"PAYLOAD"},{"OBJECT_TYPE":"PAYLOAD","PERIOD":"95.594","COUNTRY_CODE":"US","RCS_SIZE":"LARGE","OBJECT_NAME":"STARLINK-2506","LAUNCH_DATE":"2021-04-29","FILE":"3859631","INCLINATION":"53.0548","CENTER_NAME":"EARTH","RA_OF_ASC_NODE":"312.6819","ARG_OF_PERICENTER":"69.4964","MEAN_ELEMENT_THEORY":"SGP4","SITE":"AFETR","SEMIMAJOR_AXIS":"6925.444","MEAN_ANOMALY":"290.6211","REF_FRAME":"TEME","APOAPSIS":"548.507","REV_AT_EPOCH":"10361","ECCENTRICITY":"0.00017310","TIME_SYSTEM":"UTC","DECAY_DATE":null,"OBJECT_ID":"2021-036AR","EPOCH":"2023-03-13T22:27:27.236160","CLASSIFICATION_TYPE":"U","MEAN_MOTION_DDOT":"0.0000000000000","TLE_LINE2":"2 48315  53.0548 312.6819 0001731  69.4964 290.6211 15.06369021103613","EPHEMERIS_TYPE":"0","MEAN_MOTION_DOT":"0.00011871","ELEMENT_SET_NO":"999","NORAD_CAT_ID":"48315","BSTAR":"0.00081517000000","GP_ID":"228031797","TLE_LINE1":"1 48315U 21036AR  23072.93573190  .00011871  00000-0  81517-3 0  9997","MEAN_MOTION":"15.06369021","PERIAPSIS":"546.110"},{"TLE_LINE1":"1 48316U 21036AS  23072.93298582  .00006453  00000-0  45213-3 0  9990","MEAN_MOTION":"15.06364566","PERIAPSIS":"546.393","GP_ID":"228032047","BSTAR":"0.00045213000000","NORAD_CAT_ID":"48316","EPHEMERIS_TYPE":"0","MEAN_MOTION_DOT":"0.00006453","ELEMENT_SET_NO":"999","MEAN_MOTION_DDOT":"0.0000000000000","EPOCH":"2023-03-13T22:23:29.974848","CLASSIFICATION_TYPE":"U","TLE_LINE2":"2 48316  53.0547 312.7033 0001342  86.1318 273.9824 15.06364566103612","REV_AT_EPOCH":"10361","ECCENTRICITY":"0.00013420","APOAPSIS":"548.252","OBJECT_ID":"2021-036AS","DECAY_DATE":null,"TIME_SYSTEM":"UTC","INCLINATION":"53.0547","FILE":"3859631","SITE":"AFETR","REF_FRAME":"TEME","SEMIMAJOR_AXIS":"6925.457","MEAN_ANOMALY":"273.9824","CENTER_NAME":"EARTH","RA_OF_ASC_NODE":"312.7033","ARG_OF_PERICENTER":"86.1318","MEAN_ELEMENT_THEORY":"SGP4","LAUNCH_DATE":"2021-04-29","OBJECT_TYPE":"PAYLOAD","COUNTRY_CODE":"US","RCS_SIZE":"LARGE","OBJECT_NAME":"STARLINK-2507","PERIOD":"95.594"},{"CENTER_NAME":"EARTH","RA_OF_ASC_NODE":"316.5937","ARG_OF_PERICENTER":"114.7251","MEAN_ELEMENT_THEORY":"SGP4","SITE":"AFETR","MEAN_ANOMALY":"245.3835","SEMIMAJOR_AXIS":"6925.311","REF_FRAME":"TEME","INCLINATION":"53.0540","FILE":"3859425","TIME_SYSTEM":"UTC","DECAY_DATE":null,"OBJECT_ID":"2021-036AT","APOAPSIS":"547.817","REV_AT_EPOCH":"10348","ECCENTRICITY":"0.00009260","PERIOD":"95.591","RCS_SIZE":"LARGE","COUNTRY_CODE":"US","OBJECT_NAME":"STARLINK-2513","OBJECT_TYPE":"PAYLOAD","LAUNCH_DATE":"2021-04-29","NORAD_CAT_ID":"48317","GP_ID":"228002917","BSTAR":"0.00194510000000","PERIAPSIS":"546.534","TLE_LINE1":"1 48317U 21036AT  23072.06677495  .00028819  00000-0  19451-2 0  9993","MEAN_MOTION":"15.06412390","TLE_LINE2":"2 48317  53.0540 316.5937 0000926 114.7251 245.3835 15.06412390103481","EPOCH":"2023-03-13T01:36:09.355680","CLASSIFICATION_TYPE":"U","MEAN_MOTION_DDOT":"0.0000000000000","MEAN_MOTION_DOT":"0.00028819","ELEMENT_SET_NO":"999","EPHEMERIS_TYPE":"0"},{"MEAN_MOTION_DDOT":"0.0000000000000","EPOCH":"2023-03-13T22:06:15.057504","CLASSIFICATION_TYPE":"U","TLE_LINE2":"2 48318  53.0532 322.7621 0000915  54.9267 305.1808 15.06371378103476","EPHEMERIS_TYPE":"0","ELEMENT_SET_NO":"999","MEAN_MOTION_DOT":"0.00016581","BSTAR":"0.00113030000000","GP_ID":"228032550","NORAD_CAT_ID":"48318","MEAN_MOTION":"15.06371378","TLE_LINE1":"1 48318U 21036AU  23072.92100761  .00016581  00000-0  11303-2 0  9997","PERIAPSIS":"546.668","OBJECT_TYPE":"PAYLOAD","OBJECT_NAME":"STARLINK-2509","COUNTRY_CODE":"US","RCS_SIZE":"LARGE","PERIOD":"95.594","LAUNCH_DATE":"2021-04-29","FILE":"3859631","INCLINATION":"53.0532","REF_FRAME":"TEME","SEMIMAJOR_AXIS":"6925.436","MEAN_ANOMALY":"305.1808","SITE":"AFETR","RA_OF_ASC_NODE":"322.7621","ARG_OF_PERICENTER":"54.9267","MEAN_ELEMENT_THEORY":"SGP4","CENTER_NAME":"EARTH","ECCENTRICITY":"0.00009150","REV_AT_EPOCH":"10347","APOAPSIS":"547.935","OBJECT_ID":"2021-036AU","DECAY_DATE":null,"TIME_SYSTEM":"UTC"}];
